NORAD_CAT_ID,OBJECT_NAME,OBJECT_TYPE,EPOCH,MEAN_MOTION,ECCENTRICITY,INCLINATION,RA_OF_ASC_NODE,ARG_OF_PERICENTER,MEAN_ANOMALY,BSTAR,MEAN_MOTION_DOT,MEAN_MOTION_DDOT,TLE_LINE0,TLE_LINE1,TLE_LINE2,SEMIMAJOR_AXIS,PERIOD,APOGEE,PERIGEE,DECAYED
52110.0,STARLINK-3687,PAYLOAD,2022-10-08 03:17:30,15.08836084,0.0002106999999999,53.2158,284.0825,40.0278,320.087,5.1768e-05,5.36e-06,0.0,0 STARLINK-3687,1 52110U 22029Y   22281.13716186  .00000536  00000-0  51768-4 0  9997,2 52110  53.2158 284.0825 0002107  40.0278 320.0870 15.08836084 32294,6917.892,95.438,541.215,538.3,0.0
52110.0,STARLINK-3687,PAYLOAD,2022-10-08 09:39:03,15.08832337,0.0002174,53.2164,282.8921,39.2557,320.8592,-3.2279e-05,-8.02e-06,0.0,0 STARLINK-3687,1 52110U 22029Y   22281.40212907 -.00000802  00000-0 -32279-4 0  9993,2 52110  53.2164 282.8921 0002174  39.2557 320.8592 15.08832337 32339,6917.904,95.438,541.273,538.265,0.0
52110.0,STARLINK-3687,PAYLOAD,2022-10-08 17:35:59,15.08838601,0.0002206,53.2178,281.4048,42.1642,317.952,5.2209e-05,5.43e-06,0.0,0 STARLINK-3687,1 52110U 22029Y   22281.73332490  .00000543  00000-0  52209-4 0  9994,2 52110  53.2178 281.4048 0002206  42.1642 317.9520 15.08838601 32386,6917.885,95.438,541.276,538.224,0.0
52110.0,STARLINK-3687,PAYLOAD,2022-10-09 04:43:40,15.088531699999995,0.0002073999999999,53.2171,279.3233,41.6634,318.4516,0.0001328,1.827e-05,0.0,0 STARLINK-3687,1 52110U 22029Y   22282.19699343  .00001827  00000-0  13280-3 0  9999,2 52110  53.2171 279.3233 0002074  41.6634 318.4516 15.08853170 32456,6917.84,95.437,541.14,538.27,0.0
52110.0,STARLINK-3687,PAYLOAD,2022-10-09 09:29:50,15.08845341,0.0002301,53.2158,278.4318,43.8657,316.2517,0.00020948,3.048e-05,0.0,0 STARLINK-3687,1 52110U 22029Y   22282.39572053  .00003048  00000-0  20948-3 0  9995,2 52110  53.2158 278.4318 0002301  43.8657 316.2517 15.08845341 32488,6917.864000000001,95.437,541.321,538.137,0.0
52110.0,STARLINK-3687,PAYLOAD,2022-10-09 11:05:13,15.088449300000002,0.0002254999999999,53.2156,278.134,44.5359,315.5814,0.00020047,2.904e-05,0.0,0 STARLINK-3687,1 52110U 22029Y   22282.46196058  .00002904  00000-0  20047-3 0  9990,2 52110  53.2156 278.1340 0002255  44.5359 315.5814 15.08844930 32499,6917.865,95.437,541.29,538.17,0.0
52110.0,STARLINK-3687,PAYLOAD,2022-10-09 17:26:46,15.08835535,0.0002329,53.2157,276.9446,44.5111,315.6068,1.6129e-05,-3.2e-07,0.0,0 STARLINK-3687,1 52110U 22029Y   22282.72692544 -.00000032  00000-0  16129-4 0  9998,2 52110  53.2157 276.9446 0002329  44.5111 315.6068 15.08835535 32539,6917.894,95.438,541.37,538.148,0.0
52110.0,STARLINK-3687,PAYLOAD,2022-10-10 02:59:04,15.08842704,0.0002073,53.2167,275.1599,42.4915,317.6238,0.00011483,1.5399999999999998e-05,0.0,0 STARLINK-3687,1 52110U 22029Y   22283.12435911  .00001540  00000-0  11483-3 0  9997,2 52110  53.2167 275.1599 0002073  42.4915 317.6238 15.08842704 32598,6917.871999999999,95.437,541.1709999999998,538.303,0.0
52110.0,STARLINK-3687,PAYLOAD,2022-10-10 09:20:37,15.0884223,0.0002168,53.2158,273.9705,38.7499,321.3649,0.00010093,1.319e-05,0.0,0 STARLINK-3687,1 52110U 22029Y   22283.38932102  .00001319  00000-0  10093-3 0  9999,2 52110  53.2158 273.9705 0002168  38.7499 321.3649 15.08842230 32630,6917.874,95.437,541.238,538.239,0.0
52110.0,STARLINK-3687,PAYLOAD,2022-10-11 07:36:01,15.08840548,0.0001758,53.2154,269.8066,43.5071,316.606,-7.814600000000001e-05,-1.532e-05,0.0,0 STARLINK-3687,1 52110U 22029Y   22284.31667927 -.00001532  00000-0 -78146-4 0  9996,2 52110  53.2154 269.8066 0001758  43.5071 316.6060 15.08840548 32773,6917.879,95.438,540.96,538.528,0.0
52110.0,STARLINK-3687,PAYLOAD,2022-10-12 04:16:02,15.08835104,0.000208,53.2184,265.9456,39.2191,320.8952,4.544600000000001e-05,4.35e-06,0.0,0 STARLINK-3687,1 52110U 22029Y   22285.17780860  .00000435  00000-0  45446-4 0  9999,2 52110  53.2184 265.9456 0002080  39.2191 320.8952 15.08835104 32904,6917.895,95.438,541.1990000000002,538.321,0.0
52110.0,STARLINK-3687,PAYLOAD,2022-10-12 09:02:11,15.08842821,0.0001958,53.2182,265.0506,49.3394,310.7768,2.4651e-05,1.04e-06,0.0,0 STARLINK-3687,1 52110U 22029Y   22285.37652357  .00000104  00000-0  24651-4 0  9998,2 52110  53.2182 265.0506 0001958  49.3394 310.7768 15.08842821 32939,6917.871999999999,95.437,541.091,538.382,0.0
52110.0,STARLINK-3687,PAYLOAD,2022-10-13 04:06:50,15.08823499,0.0001938,53.2169,261.4817,42.6824,317.4318,6.2824e-05,7.11e-06,0.0,0 STARLINK-3687,1 52110U 22029Y   22286.17141982  .00000711  00000-0  62824-4 0  9992,2 52110  53.2169 261.4817 0001938  42.6824 317.4318 15.08823499 33050,6917.931,95.439,541.137,538.455,0.0
52110.0,STARLINK-3687,PAYLOAD,2022-10-13 10:28:23,15.08828975,0.0001955999999999,53.217,260.2918,42.7282,317.3862,8.693200000000001e-05,1.095e-05,0.0,0 STARLINK-3687,1 52110U 22029Y   22286.43637821  .00001095  00000-0  86932-4 0  9995,2 52110  53.2170 260.2918 0001956  42.7282 317.3862 15.08828975 33091,6917.9140000000025,95.438,541.132,538.4259999999998,0.0
52110.0,STARLINK-3687,PAYLOAD,2022-10-13 15:14:32,15.08834149,0.0001983,53.2169,259.3997,41.6847,318.4296,0.00014493,2.019e-05,0.0,0 STARLINK-3687,1 52110U 22029Y   22286.63509436  .00002019  00000-0  14493-3 0  9996,2 52110  53.2169 259.3997 0001983  41.6847 318.4296 15.08834149 33127,6917.898,95.438,541.135,538.391,0.0
52110.0,STARLINK-3687,PAYLOAD,2022-10-14 07:08:23,15.08839525,0.0001965,53.2167,256.4261,47.1538,312.9619,9.2882e-05,1.19e-05,0.0,0 STARLINK-3687,1 52110U 22029Y   22287.29749616  .00001190  00000-0  92882-4 0  9993,2 52110  53.2167 256.4261 0001965  47.1538 312.9619 15.08839525 33227,6917.882,95.438,541.106,538.387,0.0
52110.0,STARLINK-3687,PAYLOAD,2022-10-14 15:05:18,15.08845235,0.0001923,53.2168,254.9391,49.1264,310.9894,0.00012163,1.648e-05,0.0,0 STARLINK-3687,1 52110U 22029Y   22287.62869182  .00001648  00000-0  12163-3 0  9992,2 52110  53.2168 254.9391 0001923  49.1264 310.9894 15.08845235 33270,6917.864000000001,95.437,541.06,538.399,0.0
52110.0,STARLINK-3687,PAYLOAD,2022-10-15 00:37:37,15.08845786,0.0001979,53.2167,253.155,47.2256,312.8903,0.00020306,2.946e-05,0.0,0 STARLINK-3687,1 52110U 22029Y   22288.02612931  .00002946  00000-0  20306-3 0  9995,2 52110  53.2167 253.1550 0001979  47.2256 312.8903 15.08845786 33338,6917.863,95.437,541.097,538.359,0.0
52110.0,STARLINK-3687,PAYLOAD,2022-10-15 06:59:10,15.08839175,0.0001936,53.2172,251.9664,44.4101,315.7046,0.00014102,1.957e-05,0.0,0 STARLINK-3687,1 52110U 22029Y   22288.29109414  .00001957  00000-0  14102-3 0  9999,2 52110  53.2172 251.9664 0001936  44.4101 315.7046 15.08839175 33376,6917.8830000000025,95.438,541.087,538.409,0.0
52110.0,STARLINK-3687,PAYLOAD,2022-10-15 14:56:07,15.08801224,0.0002137,53.2165,250.4814,55.4647,304.6547,0.00057644,8.888e-05,0.0,0 STARLINK-3687,1 52110U 22029Y   22288.62231275  .00008888  00000-0  57644-3 0  9995,2 52110  53.2165 250.4814 0002137  55.4647 304.6547 15.08801224 33423,6917.999,95.44,541.342,538.386,0.0
52110.0,STARLINK-3687,PAYLOAD,2022-10-16 03:39:11,15.08839198,0.0001909,53.2165,248.0998,50.105,310.011,3.9437e-05,3.4e-06,0.0,0 STARLINK-3687,1 52110U 22029Y   22289.15221732  .00000340  00000-0  39437-4 0  9997,2 52110  53.2165 248.0998 0001909  50.1050 310.0110 15.08839198 33502,6917.8830000000025,95.438,541.068,538.427,0.0
52110.0,STARLINK-3687,PAYLOAD,2022-10-16 10:00:44,15.08840192,0.0001645,53.2162,246.9084,54.0515,306.063,3.4032e-06,-2.34e-06,0.0,0 STARLINK-3687,1 52110U 22029Y   22289.41717672 -.00000234  00000-0  34032-5 0  9999,2 52110  53.2162 246.9084 0001645  54.0515 306.0630 15.08840192 33540,6917.88,95.438,540.883,538.607,0.0
52110.0,STARLINK-3687,PAYLOAD,2022-10-17 03:29:57,15.0885258,0.0001950999999999,53.217,243.6415,47.1274,312.9882,5.7394e-05,6.26e-06,0.0,0 STARLINK-3687,1 52110U 22029Y   22290.14580575  .00000626  00000-0  57394-4 0  9990,2 52110  53.2170 243.6415 0001951  47.1274 312.9882 15.08852580 33657,6917.842,95.437,541.057,538.357,0.0
52110.0,STARLINK-3687,PAYLOAD,2022-10-17 06:40:43,15.08854319,0.0001665,53.2179,243.0445,48.0358,312.0776,-3.61e-06,-3.46e-06,0.0,0 STARLINK-3687,1 52110U 22029Y   22290.27828457 -.00000346  00000-0 -36100-5 0  9992,2 52110  53.2179 243.0445 0001665  48.0358 312.0776 15.08854319 33675,6917.837,95.437,540.8530000000002,538.55,0.0
52110.0,STARLINK-3687,PAYLOAD,2022-10-18 03:20:45,15.08829569,0.0001839,53.2172,239.1789,47.5124,312.6023,1.0171e-05,-1.26e-06,0.0,0 STARLINK-3687,1 52110U 22029Y   22291.13942016 -.00000126  00000-0  10171-4 0  9990,2 52110  53.2172 239.1789 0001839  47.5124 312.6023 15.08829569 33808,6917.9119999999975,95.438,541.049,538.505,0.0
52110.0,STARLINK-3687,PAYLOAD,2022-10-18 06:31:32,15.08830938,0.0001788,53.2173,238.5839,48.0211,312.0934,1.5543e-05,-4.1e-07,0.0,0 STARLINK-3687,1 52110U 22029Y   22291.27190042 -.00000041  00000-0  15543-4 0  9993,2 52110  53.2173 238.5839 0001788  48.0211 312.0934 15.08830938 33823,6917.908,95.438,541.01,538.536,0.0
52110.0,STARLINK-3687,PAYLOAD,2022-10-18 20:49:59,15.08843281,0.0001849,53.2174,235.9078,49.9517,310.1637,2.4775e-05,1.06e-06,0.0,0 STARLINK-3687,1 52110U 22029Y   22291.86805302  .00000106  00000-0  24775-4 0  9998,2 52110  53.2174 235.9078 0001849  49.9517 310.1637 15.08843281 33911,6917.87,95.437,541.014,538.456,0.0
52110.0,STARLINK-3687,PAYLOAD,2022-10-19 03:11:32,15.08840731,0.000188,53.2162,234.7187,47.2321,312.8829,-6.820699999999999e-05,-1.374e-05,0.0,0 STARLINK-3687,1 52110U 22029Y   22292.13301724 -.00001374  00000-0 -68207-4 0  9996,2 52110  53.2162 234.7187 0001880  47.2321 312.8829 15.08840731 33958,6917.878000000002,95.438,541.044,538.443,0.0
52110.0,STARLINK-3687,PAYLOAD,2022-10-19 06:22:18,15.08843906,0.0001888,53.2162,234.124,44.3255,315.7888,-3.9382e-05,-9.15e-06,0.0,0 STARLINK-3687,1 52110U 22029Y   22292.26549419 -.00000915  00000-0 -39382-4 0  9997,2 52110  53.2162 234.1240 0001888  44.3255 315.7888 15.08843906 33970,6917.868,95.437,541.04,538.427,0.0
